OBJECT_NAME,OBJECT_ID,EPOCH,MEAN_MOTION,ECCENTRICITY,INCLINATION,RA_OF_ASC_NODE,ARG_OF_PERICENTER,MEAN_ANOMALY,EPHEMERIS_TYPE,CLASSIFICATION_TYPE,NORAD_CAT_ID,ELEMENT_SET_NO,REV_AT_EPOCH,BSTAR,MEAN_MOTION_DOT,MEAN_MOTION_DDOT
LUDI TANCE 1-01A (L-SAR 01A),2022-007A,2026-05-09T23:54:35.797824,14.88410580,.00016018,97.8092,137.9606,91.1882,268.9518,0,U,51284,999,23279,.42737278E-4,.342E-5,0
LUDI TANCE 1-01B (L-SAR 01B),2022-018A,2026-05-09T23:06:10.528704,14.88411771,.00015857,97.8100,137.9228,91.9139,268.2259,0,U,51822,999,22802,.57608506E-4,.48E-5,0
2022-019D,2022-019D,2026-05-09T23:10:40.095840,15.65914420,.00053404,97.3657,220.5331,249.2808,110.7880,0,U,51827,999,23371,.45297978E-3,.46142E-3,0
2022-019J,2022-019J,2026-05-09T23:12:56.149056,15.20284127,.00089179,97.3444,193.7650,14.9413,345.2085,0,U,51832,999,23199,.93168514E-4,.1957E-4,0
JILIN-1 GAOFEN 03D15,2022-019R,2026-05-09T19:17:43.548864,15.90105337,.00051778,97.3642,225.0463,234.5668,125.5122,0,U,51839,999,23400,.79469799E-3,.237131E-2,.22543897E-4
JILIN-1 GAOFEN 03D12,2022-019T,2026-05-09T23:17:20.043168,15.91178563,.00056471,97.3603,225.1660,222.2051,137.8788,0,U,51841,999,23403,.79600279E-3,.25089E-2,.25321408E-4
2022-023F,2022-023F,2026-05-10T00:01:33.784608,15.17767242,.0127615,63.4485,43.2930,344.0273,15.6830,0,U,51951,999,23191,.64943392E-3,.16111E-3,0
CZ-4C R/B,2022-027B,2026-05-09T18:54:00.501984,13.65476777,.02291515,63.3915,161.1504,22.7215,338.3770,0,U,52085,999,20679,.5586401E-4,-.41E-6,0
MERIDIAN 10,2022-030A,2026-05-09T02:10:29.497152,2.00616584,.67733795,62.6773,144.9880,272.8849,17.7301,0,U,52145,999,3024,0,.246E-5,0
OMNI-L1,2022-033A,2026-05-09T18:41:21.107328,14.82605595,.00063616,97.8395,209.7057,60.0686,300.1159,0,U,52157,999,22176,.18082851E-3,.1404E-4,0
ENMAP,2022-033C,2026-05-09T23:19:51.186144,14.74953471,.00014868,97.9781,212.7638,86.2393,273.8986,0,U,52159,999,22102,-.33500908E-4,-.275E-5,0
ARCSAT-1,2022-033E,2026-05-09T18:57:46.932192,15.52672633,.00041518,97.2730,221.5245,358.1615,1.9622,0,U,52161,999,22974,.1660008E-3,.10135E-3,0
GLOBAL-18,2022-034B,2026-05-09T06:12:34.815456,15.44678355,.00057683,52.9822,82.4443,116.9091,243.2504,0,U,52196,999,23094,.37285482E-3,.17289E-3,0
GAOFEN-3 03,2022-035A,2026-05-10T00:03:30.955968,14.42217983,.00010428,98.4081,139.1358,70.8821,289.2482,0,U,52200,999,21534,-.42771902E-4,-.184E-5,0
DAQI-1,2022-039A,2026-05-09T23:30:33.951168,14.57654564,.00044154,98.1466,69.6260,31.3005,328.8456,0,U,52257,999,21637,.78261875E-4,.312E-5,0
BRO-6,2022-047AE,2026-05-09T23:11:35.350368,15.48283906,.00049389,97.3390,220.3610,193.4214,166.6907,0,U,52422,999,22523,.44934724E-3,.2367E-3,0
JILIN-1 GAOFEN 3D27,2022-048B,2026-05-09T22:36:29.937024,15.67910332,.0005514,97.5666,240.6766,178.1383,181.9899,0,U,52444,999,22347,.55664056E-3,.61589E-3,0
JILIN-1 GAOFEN 3D28,2022-048C,2026-05-09T22:29:22.515360,15.69941270,.00042208,97.5607,240.7034,193.3561,166.7590,0,U,52445,999,22351,.56751499E-3,.68271E-3,0
VIGORIDE-3,2022-057AE,2026-05-09T22:46:20.103456,15.26876858,.00071033,97.6550,268.9353,255.8976,104.1473,0,U,52760,999,21932,.15373451E-3,.3982E-4,0
ION SCV-006,2022-057AF,2026-05-09T22:44:21.919488,15.44407514,.00164423,97.6054,276.7755,250.5376,109.4095,0,U,52761,999,22021,.15851119E-3,.7263E-4,0
SHERPA-AC1,2022-057AH,2026-05-09T22:56:16.763712,15.35721691,.00068534,97.6639,277.6174,220.3431,139.7304,0,U,52763,999,21983,.16346926E-3,.5595E-4,0
OMNI-L2,2022-057AR,2026-05-09T18:06:36.775584,14.81266728,.0008386,97.4733,194.6943,92.1822,268.0352,0,U,52771,999,21470,.13245314E-3,.986E-5,0
STEP CUBE LAB-II,2022-065D,2026-05-09T21:51:58.254624,14.63241688,.00093895,98.2177,273.9429,138.5238,221.6678,0,U,52897,999,20590,.14823474E-3,.716E-5,0
RANDEV,2022-065E,2026-05-09T22:08:02.626368,14.63626643,.0008716,98.2164,274.2888,138.2771,221.9097,0,U,52898,999,20565,.14138781E-3,.687E-5,0
SNUGLITE-II,2022-065F,2026-05-09T23:16:44.469696,14.64274867,.00084145,98.2151,274.8810,137.4500,222.7356,0,U,52899,999,20540,.14194179E-3,.7E-5,0
MIMAN,2022-065G,2026-05-09T22:08:22.974432,14.61800502,.00084935,98.2208,272.6098,139.0820,221.1020,0,U,52900,999,20485,.95444207E-4,.429E-5,0
STARLINK-4362,2022-077A,2026-05-09T10:53:40.772832,15.05661548,.00012745,97.5156,309.8240,97.8159,262.3213,0,U,53043,999,21005,-.606257E-4,-.934E-5,0
LARES-2,2022-080A,2026-05-07T03:52:33.796992,6.38965197,.0005357,70.1704,319.3995,343.8104,16.2342,0,U,53105,999,8904,0,-.8E-7,0
GREENCUBE (IO-117),2022-080E,2026-05-09T21:32:44.974464,6.42583320,.00088626,70.1439,311.5673,298.6643,61.3125,0,U,53109,999,8960,0,-.3E-7,0
STARLINK-4410,2022-084R,2026-05-10T00:00:04.000320,15.14560364,.00009611,97.6016,190.6036,60.8622,27.3149,0,U,53204,999,579,.35547652E-2,.66036E-3,0
COSMOS 2558,2022-089A,2026-05-09T19:27:24.976800,15.68373238,.0002588,97.2241,232.5326,179.2206,180.9060,0,U,53323,999,21180,.53422E-3,.60181E-3,0
TECMS,2022-090A,2026-05-09T22:41:32.974656,15.21420164,.00020306,97.3151,199.1324,357.6240,2.4987,0,U,53346,999,20899,.11632991E-3,.2543E-4,0
DONGPO 02,2022-098J,2026-05-09T23:02:25.024704,15.68099605,.00026446,97.5468,258.0692,129.1888,230.9608,0,U,53452,999,20879,.52949303E-3,.58978E-3,0
DONGPO 01,2022-098K,2026-05-09T23:16:59.440224,15.66551965,.00008185,97.5533,258.6836,150.7080,209.4226,0,U,53453,999,20876,.50050085E-3,.52316E-3,0
STARLINK-4400,2022-099D,2026-05-09T21:33:41.395392,15.05654935,.0000192,97.5126,250.3359,201.0899,159.0320,0,U,53468,999,20518,-.95295981E-4,-.1434E-4,0
STARLINK-4621,2022-105AE,2026-05-09T21:37:41.064672,15.05648222,.00023664,97.5151,10.3489,75.8444,284.3046,0,U,53676,999,20244,-.1777801E-4,-.316E-5,0
SHERPA-LTC2,2022-107BG,2026-05-09T23:04:29.158176,14.69155746,.03979041,53.2342,22.0969,119.2442,244.8931,0,U,53754,999,19692,.2341772E-3,.45E-4,0
CENTISPACE-1 S3,2022-108A,2026-05-09T20:02:03.573312,14.61217066,.00083265,53.5325,213.8443,237.3020,122.7153,0,U,53757,999,19592,.88730689E-4,.252E-5,0
CENTISPACE-1 S4,2022-108B,2026-05-09T18:26:32.456544,14.61889288,.00081304,53.5300,211.8172,222.7642,137.2701,0,U,53758,999,19594,.11469844E-3,.388E-5,0
BLUEWALKER-3,2022-111AL,2026-05-09T12:21:54.254592,15.37812167,.00072785,53.2282,215.4542,61.8497,298.3243,0,U,53807,999,20425,.12699855E-3,.4399E-4,0
YUNHAI-1 03,2022-115A,2026-05-09T23:39:52.381152,14.32691300,.00052952,98.5538,128.6196,146.7462,213.4056,0,U,53877,999,19004,.11278655E-3,.263E-5,0
CENTISPACE-1 S5,2022-126A,2026-05-09T23:00:13.057344,14.62943969,.00120652,55.0004,5.9307,355.5565,4.5320,0,U,54020,999,19144,.14450115E-3,.556E-5,0
CENTISPACE-1 S6,2022-126B,2026-05-09T22:23:25.293696,14.62234716,.00138944,55.0007,7.7226,354.3965,5.6871,0,U,54021,999,19140,.12781077E-3,.461E-5,0
OTB-3-GAZELLE,2022-127A,2026-05-09T23:35:43.235520,14.42660502,.00121085,98.3940,122.2717,307.6963,52.3128,0,U,54023,999,18885,.45760837E-4,.109E-5,0
ASO-S,2022-129A,2026-05-10T00:13:41.517120,14.52042887,.00136771,98.2758,135.6363,205.0905,154.9627,0,U,54029,999,18988,.40275014E-4,.118E-5,0
HJ-2E,2022-132A,2026-05-09T22:56:15.033984,15.21746406,.00220795,97.3814,135.0391,139.6085,220.6795,0,U,54035,999,19860,.24299241E-3,.5473E-4,0
COSMOS 2561,2022-137A,2026-05-09T20:14:22.148160,15.50736665,.0010735,96.9222,190.2963,157.7595,202.4126,0,U,54109,999,20040,.16984E-3,.9702E-4,0
GONETS-M 23,2022-139A,2026-05-09T22:42:35.161920,12.42889064,.00208772,82.5102,12.0604,307.4458,52.4722,0,U,54150,999,16089,.21202329E-4,.13E-6,0
GONETS-M 24,2022-139B,2026-05-09T22:03:53.294976,12.42889688,.00162792,82.5004,11.1632,318.9918,40.9936,0,U,54151,999,16089,.13685003E-3,.29E-6,0
GONETS-M 25,2022-139C,2026-05-09T21:44:13.788096,12.42888904,.0020176,82.5071,11.8371,316.6972,43.2521,0,U,54152,999,16089,.7752498E-5,.11E-6,0
SKIF-D,2022-139D,2026-05-09T06:49:32.850336,5.00439038,.00073738,89.9558,96.6795,214.5123,145.4786,0,U,54153,999,6216,0,.4E-6,0
MATS,2022-147A,2026-05-09T22:59:08.774016,15.05114662,.0011814,97.6825,131.7277,336.0047,24.0627,0,U,54227,999,19201,.21834184E-3,.3049E-4,0
JILIN-1 GAOFEN 03D54,2022-155D,2026-05-09T23:34:11.242848,15.82226744,.00022736,97.6087,278.5753,169.9073,190.2241,0,U,54254,999,19423,.55919483E-3,.115686E-2,0
EOS-6 (OCEANSAT-3),2022-158A,2026-05-09T22:09:42.153120,14.47018177,.00022701,98.3517,228.6297,91.7631,268.3822,0,U,54361,999,18230,.63729918E-4,.188E-5,0
DONGPO 09,2022-167D,2026-05-09T23:18:04.312800,15.35498045,.00012799,97.6880,299.3056,238.5345,121.5773,0,U,54685,999,18958,.23799554E-3,.8124E-4,0
DONGPO 08,2022-167E,2026-05-09T22:49:15.047040,15.32905376,.00070271,97.6840,296.6413,307.4671,52.5930,0,U,54686,999,18946,.22750662E-3,.7151E-4,0
2022-167F,2022-167F,2026-05-09T23:10:38.647776,15.80468115,.00031517,97.6176,313.5552,185.2032,174.9203,0,U,54687,999,19077,.51369712E-3,.97827E-3,0
DONGPO 10,2022-167H,2026-05-09T23:27:18.524736,15.33683819,.00039919,97.6924,298.5303,240.3518,119.7327,0,U,54689,999,18950,.22716373E-3,.7315E-4,0
JILIN-1 GAOFEN 03D48,2022-167P,2026-05-09T22:16:51.924864,15.34413763,.00052634,97.6857,297.8458,246.6269,113.4420,0,U,54695,999,18952,.23860211E-3,.787E-4,0
STAR VIBE,2023-001A,2026-05-09T22:47:29.296896,15.41582384,.00044404,97.3192,194.2861,240.7232,119.3571,0,U,55009,999,18633,.233452E-3,.9732E-4,0
BRO-8,2023-001C,2026-05-09T23:16:33.472704,15.46807146,.00046994,97.3236,194.6683,246.7513,113.3242,0,U,55011,999,18629,.41638964E-3,.20826E-3,0
CONNECTA T1.2,2023-001D,2026-05-09T17:45:35.563680,15.48020282,.00057227,97.3296,199.8263,218.3197,141.7648,0,U,55012,999,18659,.5100594E-3,.2665E-3,0
BIRKELAND,2023-001G,2026-05-09T23:56:41.395776,15.39407786,.00055027,97.3363,197.8867,231.2865,128.7889,0,U,55015,999,18647,.15472185E-3,.5972E-4,0
ION SCV-008,2023-001AU,2026-05-09T19:19:28.941312,15.28099960,.00160151,97.5680,225.5012,144.2425,215.9890,0,U,55051,999,18547,.19164297E-3,.5191E-4,0
ION SCV-007,2023-001BD,2026-05-09T22:26:55.367520,14.77517825,.00137908,97.9025,193.7051,98.9487,261.3286,0,U,55060,999,18060,.47397572E-4,.288E-5,0
